[{"OBJECT_NAME":"STARLINK-35598","OBJECT_ID":"2025-263AA","EPOCH":"2026-03-17T22:10:22.380096","MEAN_MOTION":15.27602302,"ECCENTRICITY":7.998e-5,"INCLINATION":43.0012,"RA_OF_ASC_NODE":304.5866,"ARG_OF_PERICENTER":248.9647,"MEAN_ANOMALY":111.1119,"EPHEMERIS_TYPE":0,"CLASSIFICATION_TYPE":"U","NORAD_CAT_ID":66509,"ELEMENT_SET_NO":999,"REV_AT_EPOCH":2015,"BSTAR":0.00045246446,"MEAN_MOTION_DOT":0.00012218,"MEAN_MOTION_DDOT":0},{"OBJECT_NAME":"STARLINK-35600","OBJECT_ID":"2025-263AB","EPOCH":"2026-03-17T22:04:49.098144","MEAN_MOTION":15.27603368,"ECCENTRICITY":0.00020959,"INCLINATION":42.9991,"RA_OF_ASC_NODE":304.5571,"ARG_OF_PERICENTER":281.3954,"MEAN_ANOMALY":78.6662,"EPHEMERIS_TYPE":0,"CLASSIFICATION_TYPE":"U","NORAD_CAT_ID":66510,"ELEMENT_SET_NO":999,"REV_AT_EPOCH":2015,"BSTAR":0.00047918008,"MEAN_MOTION_DOT":0.00012957,"MEAN_MOTION_DDOT":0},{"OBJECT_NAME":"STARLINK-35444","OBJECT_ID":"2025-263AC","EPOCH":"2026-03-17T22:47:10.010688","MEAN_MOTION":15.2760272,"ECCENTRICITY":0.00014965,"INCLINATION":43.0019,"RA_OF_ASC_NODE":303.9127,"ARG_OF_PERICENTER":264.1872,"MEAN_ANOMALY":95.8809,"EPHEMERIS_TYPE":0,"CLASSIFICATION_TYPE":"U","NORAD_CAT_ID":66511,"ELEMENT_SET_NO":999,"REV_AT_EPOCH":2016,"BSTAR":0.00048020249,"MEAN_MOTION_DOT":0.00012984,"MEAN_MOTION_DDOT":0},{"OBJECT_NAME":"STARLINK-35366","OBJECT_ID":"2025-263AD","EPOCH":"2026-03-17T23:07:31.196928","MEAN_MOTION":15.27600621,"ECCENTRICITY":0.00015977,"INCLINATION":43.0002,"RA_OF_ASC_NODE":304.0148,"ARG_OF_PERICENTER":252.304,"MEAN_ANOMALY":107.7637,"EPHEMERIS_TYPE":0,"CLASSIFICATION_TYPE":"U","NORAD_CAT_ID":66512,"ELEMENT_SET_NO":999,"REV_AT_EPOCH":2016,"BSTAR":0.00052251977,"MEAN_MOTION_DOT":0.00014153,"MEAN_MOTION_DDOT":0},{"OBJECT_NAME":"STARLINK-35692","OBJECT_ID":"2025-263AE","EPOCH":"2026-03-17T23:18:37.132704","MEAN_MOTION":15.27607503,"ECCENTRICITY":0.00016529,"INCLINATION":42.9992,"RA_OF_ASC_NODE":304.074,"ARG_OF_PERICENTER":265.4667,"MEAN_ANOMALY":94.5996,"EPHEMERIS_TYPE":0,"CLASSIFICATION_TYPE":"U","NORAD_CAT_ID":66513,"ELEMENT_SET_NO":999,"REV_AT_EPOCH":2016,"BSTAR":0.00077916666,"MEAN_MOTION_DOT":0.00021259,"MEAN_MOTION_DDOT":0},{"OBJECT_NAME":"STARLINK-35924","OBJECT_ID":"2025-265A","EPOCH":"2026-03-17T20:15:51.601536","MEAN_MOTION":15.27594964,"ECCENTRICITY":0.00015082,"INCLINATION":43.0005,"RA_OF_ASC_NODE":231.6222,"ARG_OF_PERICENTER":263.874,"MEAN_ANOMALY":96.1939,"EPHEMERIS_TYPE":0,"CLASSIFICATION_TYPE":"U","NORAD_CAT_ID":66516,"ELEMENT_SET_NO":999,"REV_AT_EPOCH":1836,"BSTAR":0.00049184138,"MEAN_MOTION_DOT":0.00013303,"MEAN_MOTION_DDOT":0},{"OBJECT_NAME":"STARLINK-35937","OBJECT_ID":"2025-265B","EPOCH":"2026-03-17T18:21:33.753600","MEAN_MOTION":15.27597445,"ECCENTRICITY":0.00017987,"INCLINATION":43.0007,"RA_OF_ASC_NODE":232.745,"ARG_OF_PERICENTER":270.4188,"MEAN_ANOMALY":89.6458,"EPHEMERIS_TYPE":0,"CLASSIFICATION_TYPE":"U","NORAD_CAT_ID":66517,"ELEMENT_SET_NO":999,"REV_AT_EPOCH":1834,"BSTAR":0.00053244996,"MEAN_MOTION_DOT":0.00014426,"MEAN_MOTION_DDOT":0},{"OBJECT_NAME":"STARLINK-35962","OBJECT_ID":"2025-265C","EPOCH":"2026-03-18T03:33:33.557184","MEAN_MOTION":15.27578672,"ECCENTRICITY":0.00015922,"INCLINATION":43.0004,"RA_OF_ASC_NODE":230.4586,"ARG_OF_PERICENTER":262.3797,"MEAN_ANOMALY":97.6874,"EPHEMERIS_TYPE":0,"CLASSIFICATION_TYPE":"U","NORAD_CAT_ID":66518,"ELEMENT_SET_NO":999,"REV_AT_EPOCH":1840,"BSTAR":0.001102758,"MEAN_MOTION_DOT":0.00030207,"MEAN_MOTION_DDOT":0},{"OBJECT_NAME":"STARLINK-35931","OBJECT_ID":"2025-265D","EPOCH":"2026-03-17T17:44:33.541440","MEAN_MOTION":15.27607948,"ECCENTRICITY":5.642e-5,"INCLINATION":43.0014,"RA_OF_ASC_NODE":232.5496,"ARG_OF_PERICENTER":290.8119,"MEAN_ANOMALY":69.2672,"EPHEMERIS_TYPE":0,"CLASSIFICATION_TYPE":"U","NORAD_CAT_ID":66519,"ELEMENT_SET_NO":999,"REV_AT_EPOCH":1834,"BSTAR":0.00098442418,"MEAN_MOTION_DOT":0.00026949,"MEAN_MOTION_DDOT":0},{"OBJECT_NAME":"STARLINK-35952","OBJECT_ID":"2025-265E","EPOCH":"2026-03-18T03:22:27.206688","MEAN_MOTION":15.27587529,"ECCENTRICITY":0.00017929,"INCLINATION":43.0054,"RA_OF_ASC_NODE":230.4054,"ARG_OF_PERICENTER":275.4483,"MEAN_ANOMALY":84.6164,"EPHEMERIS_TYPE":0,"CLASSIFICATION_TYPE":"U","NORAD_CAT_ID":66520,"ELEMENT_SET_NO":999,"REV_AT_EPOCH":1840,"BSTAR":0.00083272033,"MEAN_MOTION_DOT":0.00022729,"MEAN_MOTION_DDOT":0},{"OBJECT_NAME":"STARLINK-35915","OBJECT_ID":"2025-265F","EPOCH":"2026-03-18T03:07:38.504928","MEAN_MOTION":15.27588598,"ECCENTRICITY":0.0001877,"INCLINATION":43.0019,"RA_OF_ASC_NODE":230.3277,"ARG_OF_PERICENTER":270.2084,"MEAN_ANOMALY":89.8553,"EPHEMERIS_TYPE":0,"CLASSIFICATION_TYPE":"U","NORAD_CAT_ID":66521,"ELEMENT_SET_NO":999,"REV_AT_EPOCH":1840,"BSTAR":0.0005178685,"MEAN_MOTION_DOT":0.00014019,"MEAN_MOTION_DDOT":0},{"OBJECT_NAME":"STARLINK-35946","OBJECT_ID":"2025-265G","EPOCH":"2026-03-18T03:29:51.224928","MEAN_MOTION":15.27580286,"ECCENTRICITY":0.00014686,"INCLINATION":43.0001,"RA_OF_ASC_NODE":230.4374,"ARG_OF_PERICENTER":263.5032,"MEAN_ANOMALY":96.5653,"EPHEMERIS_TYPE":0,"CLASSIFICATION_TYPE":"U","NORAD_CAT_ID":66522,"ELEMENT_SET_NO":999,"REV_AT_EPOCH":1840,"BSTAR":0.0010422855,"MEAN_MOTION_DOT":0.00028531,"MEAN_MOTION_DDOT":0},{"OBJECT_NAME":"STARLINK-35969","OBJECT_ID":"2025-265H","EPOCH":"2026-03-17T17:29:45.127392","MEAN_MOTION":15.27593387,"ECCENTRICITY":8.446e-5,"INCLINATION":43.0006,"RA_OF_ASC_NODE":232.4711,"ARG_OF_PERICENTER":267.3185,"MEAN_ANOMALY":92.757,"EPHEMERIS_TYPE":0,"CLASSIFICATION_TYPE":"U","NORAD_CAT_ID":66523,"ELEMENT_SET_NO":999,"REV_AT_EPOCH":1834,"BSTAR":0.00055356108,"MEAN_MOTION_DOT":0.00015008,"MEAN_MOTION_DDOT":0},{"OBJECT_NAME":"STARLINK-35687","OBJECT_ID":"2025-265J","EPOCH":"2026-03-17T16:43:42.277440","MEAN_MOTION":15.27599193,"ECCENTRICITY":6.952e-5,"INCLINATION":43.0005,"RA_OF_ASC_NODE":233.0927,"ARG_OF_PERICENTER":187.9076,"MEAN_ANOMALY":172.1765,"EPHEMERIS_TYPE":0,"CLASSIFICATION_TYPE":"U","NORAD_CAT_ID":66524,"ELEMENT_SET_NO":999,"REV_AT_EPOCH":1833,"BSTAR":0.00071948448,"MEAN_MOTION_DOT":0.00019601,"MEAN_MOTION_DDOT":0},{"OBJECT_NAME":"STARLINK-35975","OBJECT_ID":"2025-265K","EPOCH":"2026-03-18T02:56:33.879840","MEAN_MOTION":15.27615307,"ECCENTRICITY":0.00019325,"INCLINATION":42.998,"RA_OF_ASC_NODE":230.2675,"ARG_OF_PERICENTER":280.3386,"MEAN_ANOMALY":79.7248,"EPHEMERIS_TYPE":0,"CLASSIFICATION_TYPE":"U","NORAD_CAT_ID":66525,"ELEMENT_SET_NO":999,"REV_AT_EPOCH":1840,"BSTAR":0.00072429403,"MEAN_MOTION_DOT":0.00019744,"MEAN_MOTION_DDOT":0},{"OBJECT_NAME":"STARLINK-35932","OBJECT_ID":"2025-265L","EPOCH":"2026-03-17T17:27:54.238176","MEAN_MOTION":15.2757983,"ECCENTRICITY":0.00012895,"INCLINATION":42.9987,"RA_OF_ASC_NODE":232.4625,"ARG_OF_PERICENTER":281.6689,"MEAN_ANOMALY":78.4018,"EPHEMERIS_TYPE":0,"CLASSIFICATION_TYPE":"U","NORAD_CAT_ID":66526,"ELEMENT_SET_NO":999,"REV_AT_EPOCH":1834,"BSTAR":0.00016801647,"MEAN_MOTION_DOT":4.364e-5,"MEAN_MOTION_DDOT":0}]
