STARLINK-35598          
1 66509U 25263AA  26076.92387014  .00012218  00000+0  45246-3 0  9996
2 66509  43.0012 304.5866 0000799 248.9647 111.1119 15.27602302 20156
STARLINK-35600          
1 66510U 25263AB  26076.92001271  .00012957  00000+0  47918-3 0  9994
2 66510  42.9991 304.5571 0002095 281.3954  78.6662 15.27603368 20151
STARLINK-35444          
1 66511U 25263AC  26076.94942142  .00012984  00000+0  48020-3 0  9993
2 66511  43.0019 303.9127 0001496 264.1872  95.8809 15.27602720 20163
STARLINK-35366          
1 66512U 25263AD  26076.96355552  .00014153  00000+0  52252-3 0  9991
2 66512  43.0002 304.0148 0001597 252.3040 107.7637 15.27600621 20169
STARLINK-35692          
1 66513U 25263AE  26076.97126311  .00021259  00000+0  77917-3 0  9992
2 66513  42.9992 304.0740 0001652 265.4667  94.5996 15.27607503 20163
STARLINK-35924          
1 66516U 25265A   26076.84434724  .00013303  00000+0  49184-3 0  9999
2 66516  43.0005 231.6222 0001508 263.8740  96.1939 15.27594964 18367
STARLINK-35937          
1 66517U 25265B   26076.76497400  .00014426  00000+0  53245-3 0  9991
2 66517  43.0007 232.7450 0001798 270.4188  89.6458 15.27597445 18344
STARLINK-35962          
1 66518U 25265C   26077.14830506  .00030207  00000+0  11028-2 0  9990
2 66518  43.0004 230.4586 0001592 262.3797  97.6874 15.27578672 18404
STARLINK-35931          
1 66519U 25265D   26076.73927710  .00026949  00000+0  98442-3 0  9993
2 66519  43.0014 232.5496 0000564 290.8119  69.2672 15.27607948 18344
STARLINK-35952          
1 66520U 25265E   26077.14059267  .00022729  00000+0  83272-3 0  9991
2 66520  43.0054 230.4054 0001792 275.4483  84.6164 15.27587529 18400
STARLINK-35915          
1 66521U 25265F   26077.13030677  .00014019  00000+0  51787-3 0  9994
2 66521  43.0019 230.3277 0001877 270.2084  89.8553 15.27588598 18408
STARLINK-35946          
1 66522U 25265G   26077.14573177  .00028531  00000+0  10423-2 0  9998
2 66522  43.0001 230.4374 0001468 263.5032  96.5653 15.27580286 18405
STARLINK-35969          
1 66523U 25265H   26076.72899453  .00015008  00000+0  55356-3 0  9990
2 66523  43.0006 232.4711 0000844 267.3185  92.7570 15.27593387 18341
STARLINK-35687          
1 66524U 25265J   26076.69701710  .00019601  00000+0  71948-3 0  9993
2 66524  43.0005 233.0927 0000695 187.9076 172.1765 15.27599193 18336
STARLINK-35975          
1 66525U 25265K   26077.12261435  .00019744  00000+0  72429-3 0  9991
2 66525  42.9980 230.2675 0001932 280.3386  79.7248 15.27615307 18405
STARLINK-35932          
1 66526U 25265L   26076.72771109  .00004364  00000+0  16802-3 0  9996
2 66526  42.9987 232.4625 0001289 281.6689  78.4018 15.27579830 18341
